COSMOS 2361 [-]         
1 25590U 98076A   16291.64907590  .00000038  00000-0  24643-4 0  9994
2 25590  82.9310 295.2256 0031187 196.2024 301.8051 13.72921651892397
COSMOS 2378 [-]         
1 26818U 01023A   16292.03703478  .00000073  00000-0  61043-4 0  9991
2 26818  82.9276 316.7893 0033472 150.3800 209.9280 13.73906834770282
COSMOS 2389 [-]         
1 27436U 02026A   16292.42077806  .00000027  00000-0  12642-4 0  9994
2 27436  82.9489 260.0434 0047125  27.0321  84.1508 13.74905334722249
COSMOS 2398 [-]         
1 27818U 03023A   16292.01638405  .00000005  00000-0 -10749-4 0  9992
2 27818  82.9507 215.2539 0032626  36.9742 323.3640 13.72134167669722
COSMOS 2407 [+]         
1 28380U 04028A   16291.71086197  .00000040  00000-0  24927-4 0  9995
2 28380  82.9629 167.8168 0040461  42.5364 317.8915 13.76031469614640
COSMOS 2414 [+]         
1 28521U 05002A   16292.42751653  .00000032  00000-0  13769-4 0  9993
2 28521  82.9531 191.5615 0039608 310.0708  49.6985 13.87575818594755
COSMOS 2429 [-]         
1 32052U 07038A   16291.95583035  .00000033  00000-0  18720-4 0  9995
2 32052  82.9772 286.2043 0038733  11.0964 349.1037 13.74878604456661
COSMOS 2454 [-]         
1 35635U 09039A   16292.46793957  .00000032  00000-0  13620-4 0  9994
2 35635  82.9595 181.7392 0018020 275.5150  84.3958 13.89602235367483
COSMOS 2463 [+]         
1 36519U 10017A   16291.93964696  .00000200  00000-0  20533-3 0  9992
2 36519  82.9607 322.0616 0035717 198.7236 161.2608 13.71405146324260
